{
  "type": "FeatureCollection",
  "features": [
    {
      "type": "Feature",
      "properties": {
        "norad_id": 66645,
        "name": "SHENZHOU-22",
        "group": "last-30-days",
        "lat": -37.32604950532822,
        "lon": -51.993100747925716,
        "alt_km": 393.31200973732575,
        "timestamp": "2025-12-04T05:42:42.159831+00:00",
        "meta_object_name": "SHENZHOU-22",
        "meta_object_id": "2025-272A",
        "meta_epoch": "2025-12-03T17:53:39.447744",
        "meta_mean_motion": 15.58598848,
        "meta_eccentricity": 0.00100687,
        "meta_inclination": 41.4679,
        "meta_ra_of_asc_node": 71.2873,
        "meta_arg_of_pericenter": 322.1315,
        "meta_mean_anomaly": 37.8814,
        "meta_ephemeris_type": 0,
        "meta_classification_type": "U",
        "meta_norad_cat_id": 66645,
        "meta_element_set_no": 999,
        "meta_rev_at_epoch": 26263,
        "meta_bstar": 0.00035132982,
        "meta_mean_motion_dot": 0.00027527,
        "meta_mean_motion_ddot": 0,
        "tle_line1": "1 66645U 25272A   25337.74559546  .00027527  00000+0  35133-3 0  9990",
        "tle_line2": "2 66645  41.4679  71.2873 0010068 322.1315  37.8814 15.58598848262631"
      },
      "geometry": {
        "type": "Point",
        "coordinates": [
          -51.993100747925716,
          -37.32604950532822
        ]
      }
    },
    {
      "type": "Feature",
      "properties": {
        "norad_id": 66646,
        "name": "CZ-2F R/B",
        "group": "last-30-days",
        "lat": -28.13076519859083,
        "lon": 27.062869727902594,
        "alt_km": 285.00254495498484,
        "timestamp": "2025-12-04T05:42:42.159843+00:00",
        "meta_object_name": "CZ-2F R/B",
        "meta_object_id": "2025-272B",
        "meta_epoch": "2025-11-26T11:17:54.506400",
        "meta_mean_motion": 16.01945612,
        "meta_eccentricity": 0.01210796,
        "meta_inclination": 41.4431,
        "meta_ra_of_asc_node": 114.9009,
        "meta_arg_of_pericenter": 133.7676,
        "meta_mean_anomaly": 227.3272,
        "meta_ephemeris_type": 0,
        "meta_classification_type": "U",
        "meta_norad_cat_id": 66646,
        "meta_element_set_no": 999,
        "meta_rev_at_epoch": 21,
        "meta_bstar": 0.00029319366,
        "meta_mean_motion_dot": 0.00449059,
        "meta_mean_motion_ddot": 7.567612e-06,
        "tle_line1": "1 66646U 25272B   25330.47076975  .00449059  75676-5  29319-3 0  9998",
        "tle_line2": "2 66646  41.4431 114.9009 0121079 133.7676 227.3272 16.01945612   217"
      },
      "geometry": {
        "type": "Point",
        "coordinates": [
          27.062869727902594,
          -28.13076519859083
        ]
      }
    },
    {
      "type": "Feature",
      "properties": {
        "norad_id": 66647,
        "name": "COSMOS 2597 (RODNIK-S 22)",
        "group": "last-30-days",
        "lat": -80.50106514665647,
        "lon": -120.21651987469272,
        "alt_km": 1500.3674752191564,
        "timestamp": "2025-12-04T05:42:42.159854+00:00",
        "meta_object_name": "COSMOS 2597 (RODNIK-S 22)",
        "meta_object_id": "2025-273A",
        "meta_epoch": "2025-12-03T22:25:48.071424",
        "meta_mean_motion": 12.41951165,
        "meta_eccentricity": 0.00081153,
        "meta_inclination": 82.4982,
        "meta_ra_of_asc_node": 291.9173,
        "meta_arg_of_pericenter": 309.8924,
        "meta_mean_anomaly": 50.1441,
        "meta_ephemeris_type": 0,
        "meta_classification_type": "U",
        "meta_norad_cat_id": 66647,
        "meta_element_set_no": 999,
        "meta_rev_at_epoch": 104,
        "meta_bstar": 2.4380244e-05,
        "meta_mean_motion_dot": 1.3e-07,
        "meta_mean_motion_ddot": 0,
        "tle_line1": "1 66647U 25273A   25337.93458416  .00000013  00000+0  24380-4 0  9992",
        "tle_line2": "2 66647  82.4982 291.9173 0008115 309.8924  50.1441 12.41951165  1041"
      },
      "geometry": {
        "type": "Point",
        "coordinates": [
          -120.21651987469272,
          -80.50106514665647
        ]
      }
    },
    {
      "type": "Feature",
      "properties": {
        "norad_id": 66648,
        "name": "COSMOS 2598 (RODNIK-S 23)",
        "group": "last-30-days",
        "lat": -73.10901140533558,
        "lon": -93.96522816111218,
        "alt_km": 1498.048344818113,
        "timestamp": "2025-12-04T05:42:42.159864+00:00",
        "meta_object_name": "COSMOS 2598 (RODNIK-S 23)",
        "meta_object_id": "2025-273B",
        "meta_epoch": "2025-12-03T22:22:53.933952",
        "meta_mean_motion": 12.42253072,
        "meta_eccentricity": 0.00082208,
        "meta_inclination": 82.5023,
        "meta_ra_of_asc_node": 291.9245,
        "meta_arg_of_pericenter": 298.34,
        "meta_mean_anomaly": 61.685,
        "meta_ephemeris_type": 0,
        "meta_classification_type": "U",
        "meta_norad_cat_id": 66648,
        "meta_element_set_no": 999,
        "meta_rev_at_epoch": 104,
        "meta_bstar": 2.8958057e-05,
        "meta_mean_motion_dot": 1.4e-07,
        "meta_mean_motion_ddot": 0,
        "tle_line1": "1 66648U 25273B   25337.93256868  .00000014  00000+0  28958-4 0  9996",
        "tle_line2": "2 66648  82.5023 291.9245 0008220 298.3400  61.6850 12.42253072  1041"
      },
      "geometry": {
        "type": "Point",
        "coordinates": [
          -93.96522816111218,
          -73.10901140533558
        ]
      }
    },
    {
      "type": "Feature",
      "properties": {
        "norad_id": 66649,
        "name": "COSMOS 2599 (RODNIK-S 24)",
        "group": "last-30-days",
        "lat": -81.99798372283865,
        "lon": -178.75071260919145,
        "alt_km": 1502.8815425430666,
        "timestamp": "2025-12-04T05:42:42.159874+00:00",
        "meta_object_name": "COSMOS 2599 (RODNIK-S 24)",
        "meta_object_id": "2025-273C",
        "meta_epoch": "2025-12-03T22:28:29.167680",
        "meta_mean_motion": 12.41671882,
        "meta_eccentricity": 0.00083396,
        "meta_inclination": 82.5023,
        "meta_ra_of_asc_node": 291.9276,
        "meta_arg_of_pericenter": 320.2304,
        "meta_mean_anomaly": 39.8163,
        "meta_ephemeris_type": 0,
        "meta_classification_type": "U",
        "meta_norad_cat_id": 66649,
        "meta_element_set_no": 999,
        "meta_rev_at_epoch": 104,
        "meta_bstar": -3.4438221e-05,
        "meta_mean_motion_dot": 5e-08,
        "meta_mean_motion_ddot": 0,
        "tle_line1": "1 66649U 25273C   25337.93644870  .00000005  00000+0 -34438-4 0  9992",
        "tle_line2": "2 66649  82.5023 291.9276 0008339 320.2304  39.8163 12.41671882  1041"
      },
      "geometry": {
        "type": "Point",
        "coordinates": [
          -178.75071260919145,
          -81.99798372283865
        ]
      }
    },
    {
      "type": "Feature",
      "properties": {
        "norad_id": 66650,
        "name": "2025-274A",
        "group": "last-30-days",
        "lat": 26.287262636879515,
        "lon": -98.26908001171051,
        "alt_km": 593.5216595985448,
        "timestamp": "2025-12-04T05:42:42.159885+00:00",
        "meta_object_name": "2025-274A",
        "meta_object_id": "2025-274A",
        "meta_epoch": "2025-12-03T18:19:23.253312",
        "meta_mean_motion": 14.91610466,
        "meta_eccentricity": 0.00104215,
        "meta_inclination": 97.7384,
        "meta_ra_of_asc_node": 265.1166,
        "meta_arg_of_pericenter": 286.1999,
        "meta_mean_anomaly": 73.8073,
        "meta_ephemeris_type": 0,
        "meta_classification_type": "U",
        "meta_norad_cat_id": 66650,
        "meta_element_set_no": 999,
        "meta_rev_at_epoch": 106,
        "meta_bstar": 0.00030338104,
        "meta_mean_motion_dot": 2.992e-05,
        "meta_mean_motion_ddot": 0,
        "tle_line1": "1 66650U 25274A   25337.76346358  .00002992  00000+0  30338-3 0  9996",
        "tle_line2": "2 66650  97.7384 265.1166 0010421 286.1999  73.8073 14.91610466  1065"
      },
      "geometry": {
        "type": "Point",
        "coordinates": [
          -98.26908001171051,
          26.287262636879515
        ]
      }
    },
    {
      "type": "Feature",
      "properties": {
        "norad_id": 66651,
        "name": "2025-274B",
        "group": "last-30-days",
        "lat": 27.90981917635228,
        "lon": -98.54772285703658,
        "alt_km": 593.3219896363717,
        "timestamp": "2025-12-04T05:42:42.159895+00:00",
        "meta_object_name": "2025-274B",
        "meta_object_id": "2025-274B",
        "meta_epoch": "2025-12-03T18:18:58.924800",
        "meta_mean_motion": 14.91685128,
        "meta_eccentricity": 0.00107009,
        "meta_inclination": 97.7379,
        "meta_ra_of_asc_node": 265.1165,
        "meta_arg_of_pericenter": 285.774,
        "meta_mean_anomaly": 74.2298,
        "meta_ephemeris_type": 0,
        "meta_classification_type": "U",
        "meta_norad_cat_id": 66651,
        "meta_element_set_no": 999,
        "meta_rev_at_epoch": 106,
        "meta_bstar": 0.00059348007,
        "meta_mean_motion_dot": 5.921e-05,
        "meta_mean_motion_ddot": 0,
        "tle_line1": "1 66651U 25274B   25337.76318200  .00005921  00000+0  59348-3 0  9999",
        "tle_line2": "2 66651  97.7379 265.1165 0010700 285.7740  74.2298 14.91685128  1069"
      },
      "geometry": {
        "type": "Point",
        "coordinates": [
          -98.54772285703658,
          27.90981917635228
        ]
      }
    }
  ]
}